1 42928U 17051A   17276.60829355 +.00267232 -20793-5 +47243-3 0  9992
2 42928 019.1779 037.0805 3185356 332.4452 096.7735 09.24447795003032
1 42928U 17051A   17276.87506925 +.00265899 -20717-5 +46748-3 0  9998
2 42928 019.1763 036.3330 3184799 333.8100 264.6700 09.24586219003050
1 42928U 17051A   17277.56716017  .00263994 -20507-5  46173-3 0  9993
2 42928  19.1759  34.3879 3183145 337.3793  48.7210  9.24944471  3125
1 42928U 17051A   17277.56716017 +.00263994 -20507-5 +46173-3 0  9993
2 42928 019.1759 034.3879 3183145 337.3793 048.7210 09.24944471003125
1 42928U 17051A   17277.68429605 +.00263155 -20472-5 +46394-3 0  9995
2 42928 019.1760 034.0650 3182663 337.9759 078.7718 09.25003801003134
1 42928U 17051A   17278.53786737 +.00259346 -20199-5 +45116-3 0  9996
2 42928 019.1775 031.6754 3180839 342.3555 041.8091 09.25434885003219
1 42928U 17051A   17279.40038866  .00255919 -19919-5  45045-3 0  9997
2 42928  19.1777  29.2558 3178417 346.7929  36.0132  9.25867531  3296
